ALOS (DAICHI)           
1 28931U 06002A   24153.86608672  .00002379  00000+0  44517-3 0  9993
2 28931  98.0355 107.2525 0001705 123.4535 236.6832 14.65751247979101
